start=new Date('2021-10-08T00:00:00.000Z').valueOf();
sats=[{"APOAPSIS":"548.502","OBJECT_ID":"2021-041M","OBJECT_NAME":"STARLINK-2190","MEAN_ANOMALY":"287.1178","ECCENTRICITY":"0.00019130","REV_AT_EPOCH":"2197","TIME_SYSTEM":"UTC","MEAN_MOTION_DDOT":"0.0000000000000","EPOCH":"2021-10-07T22:30:08.442144","CLASSIFICATION_TYPE":"U","LAUNCH_DATE":"2021-05-15","MEAN_ELEMENT_THEORY":"SGP4","MEAN_MOTION_DOT":"0.00002547","DECAY_DATE":null,"REF_FRAME":"TEME","FILE":"3150302","TLE_LINE1":"1 48564U 21041M   21280.93759771  .00002547  00000-0  18978-3 0  9990","ARG_OF_PERICENTER":"73.0021","INCLINATION":"53.0559","SEMIMAJOR_AXIS":"6925.313","PERIAPSIS":"545.853","PERIOD":"95.591","ELEMENT_SET_NO":"999","TLE_LINE2":"2 48564  53.0559 176.0317 0001913  73.0021 287.1178 15.06411705 21971","CENTER_NAME":"EARTH","MEAN_MOTION":"15.06411705","EPHEMERIS_TYPE":"0","GP_ID":"186513173","COUNTRY_CODE":"US","BSTAR":"0.00018978000000","OBJECT_TYPE":"PAYLOAD","NORAD_CAT_ID":"48564","RA_OF_ASC_NODE":"176.0317","RCS_SIZE":"LARGE","SITE":"AFETR"},{"TLE_LINE2":"2 48565  53.0575 176.0475 0001966  74.4201 285.7005 15.06411384 21974","CENTER_NAME":"EARTH","MEAN_MOTION":"15.06411384","INCLINATION":"53.0575","SEMIMAJOR_AXIS":"6925.314","PERIAPSIS":"545.817","PERIOD":"95.591","ELEMENT_SET_NO":"999","NORAD_CAT_ID":"48565","OBJECT_TYPE":"PAYLOAD","RA_OF_ASC_NODE":"176.0475","RCS_SIZE":"LARGE","SITE":"AFETR","EPHEMERIS_TYPE":"0","GP_ID":"186513041","COUNTRY_CODE":"US","BSTAR":"0.00015842000000","OBJECT_NAME":"STARLINK-2191","MEAN_ANOMALY":"285.7005","ECCENTRICITY":"0.00019660","APOAPSIS":"548.540","OBJECT_ID":"2021-041N","DECAY_DATE":null,"MEAN_MOTION_DOT":"0.00002079","REF_FRAME":"TEME","FILE":"3150302","TLE_LINE1":"1 48565U 21041N   21280.93390935  .00002079  00000-0  15842-3 0  9991","ARG_OF_PERICENTER":"74.4201","REV_AT_EPOCH":"2197","TIME_SYSTEM":"UTC","EPOCH":"2021-10-07T22:24:49.767840","MEAN_MOTION_DDOT":"0.0000000000000","LAUNCH_DATE":"2021-05-15","CLASSIFICATION_TYPE":"U","MEAN_ELEMENT_THEORY":"SGP4"},{"MEAN_MOTION":"15.06393973","CENTER_NAME":"EARTH","TLE_LINE2":"2 48566  53.0557 186.2355 0001869  68.9283 291.1906 15.06393973 21823","ELEMENT_SET_NO":"999","PERIOD":"95.593","PERIAPSIS":"545.938","SEMIMAJOR_AXIS":"6925.367","INCLINATION":"53.0557","SITE":"AFETR","RCS_SIZE":"LARGE","RA_OF_ASC_NODE":"186.2355","OBJECT_TYPE":"PAYLOAD","NORAD_CAT_ID":"48566","BSTAR":"0.00002797400000","COUNTRY_CODE":"US","EPHEMERIS_TYPE":"0","GP_ID":"186512721","ECCENTRICITY":"0.00018690","MEAN_ANOMALY":"291.1906","OBJECT_NAME":"STARLINK-2214","OBJECT_ID":"2021-041P","APOAPSIS":"548.526","ARG_OF_PERICENTER":"68.9283","TLE_LINE1":"1 48566U 21041P   21280.89151080  .00000135  00000-0  27974-4 0  9994","FILE":"3150302","REF_FRAME":"TEME","MEAN_MOTION_DOT":"0.00000135","DECAY_DATE":null,"MEAN_ELEMENT_THEORY":"SGP4","CLASSIFICATION_TYPE":"U","LAUNCH_DATE":"2021-05-15","MEAN_MOTION_DDOT":"0.0000000000000","EPOCH":"2021-10-07T21:23:46.533120","REV_AT_EPOCH":"2182","TIME_SYSTEM":"UTC"},{"OBJECT_ID":"2021-041Q","APOAPSIS":"548.526","ECCENTRICITY":"0.00019180","MEAN_ANOMALY":"289.9874","OBJECT_NAME":"STARLINK-2215","MEAN_ELEMENT_THEORY":"SGP4","LAUNCH_DATE":"2021-05-15","CLASSIFICATION_TYPE":"U","MEAN_MOTION_DDOT":"0.0000000000000","EPOCH":"2021-10-07T21:41:02.404320","TIME_SYSTEM":"UTC","REV_AT_EPOCH":"2182","ARG_OF_PERICENTER":"70.1322","TLE_LINE1":"1 48567U 21041Q   21280.90350005  .00002130  00000-0  16185-3 0  9993","REF_FRAME":"TEME","FILE":"3150302","MEAN_MOTION_DOT":"0.00002130","DECAY_DATE":null,"ELEMENT_SET_NO":"999","PERIOD":"95.592","PERIAPSIS":"545.869","SEMIMAJOR_AXIS":"6925.332","INCLINATION":"53.0549","MEAN_MOTION":"15.06405323","CENTER_NAME":"EARTH","TLE_LINE2":"2 48567  53.0549 186.1765 0001918  70.1322 289.9874 15.06405323 21825","BSTAR":"0.00016185000000","COUNTRY_CODE":"US","EPHEMERIS_TYPE":"0","GP_ID":"186512927","SITE":"AFETR","RCS_SIZE":"LARGE","RA_OF_ASC_NODE":"186.1765","NORAD_CAT_ID":"48567","OBJECT_TYPE":"PAYLOAD"},{"APOAPSIS":"548.321","OBJECT_ID":"2021-041R","OBJECT_NAME":"STARLINK-2217","ECCENTRICITY":"0.00016250","MEAN_ANOMALY":"293.6990","EPOCH":"2021-10-07T21:58:17.853888","MEAN_MOTION_DDOT":"0.0000000000000","REV_AT_EPOCH":"2196","TIME_SYSTEM":"UTC","MEAN_ELEMENT_THEORY":"SGP4","LAUNCH_DATE":"2021-05-15","CLASSIFICATION_TYPE":"U","FILE":"3150302","REF_FRAME":"TEME","DECAY_DATE":null,"MEAN_MOTION_DOT":"0.00002063","TLE_LINE1":"1 48568U 21041R   21280.91548442  .00002063  00000-0  15734-3 0  9993","ARG_OF_PERICENTER":"66.4169","SEMIMAJOR_AXIS":"6925.330","INCLINATION":"53.0499","ELEMENT_SET_NO":"999","PERIAPSIS":"546.070","PERIOD":"95.592","CENTER_NAME":"EARTH","TLE_LINE2":"2 48568  53.0499 176.1430 0001625  66.4169 293.6990 15.06405903 21960","MEAN_MOTION":"15.06405903","COUNTRY_CODE":"US","GP_ID":"186512827","EPHEMERIS_TYPE":"0","BSTAR":"0.00015734000000","RA_OF_ASC_NODE":"176.1430","RCS_SIZE":"LARGE","NORAD_CAT_ID":"48568","OBJECT_TYPE":"PAYLOAD","SITE":"AFETR"},{"BSTAR":"0.00008131500000","EPHEMERIS_TYPE":"0","GP_ID":"186512696","COUNTRY_CODE":"US","SITE":"AFETR","NORAD_CAT_ID":"48569","OBJECT_TYPE":"PAYLOAD","RCS_SIZE":"LARGE","RA_OF_ASC_NODE":"176.0224","PERIOD":"95.592","PERIAPSIS":"545.736","ELEMENT_SET_NO":"999","INCLINATION":"53.0566","SEMIMAJOR_AXIS":"6925.346","MEAN_MOTION":"15.06400990","TLE_LINE2":"2 48569  53.0566 176.0224 0002129  64.5233 295.5976 15.06400990 21974","CENTER_NAME":"EARTH","CLASSIFICATION_TYPE":"U","LAUNCH_DATE":"2021-05-15","MEAN_ELEMENT_THEORY":"SGP4","REV_AT_EPOCH":"2197","TIME_SYSTEM":"UTC","MEAN_MOTION_DDOT":"0.0000000000000","EPOCH":"2021-10-07T22:35:27.060288","ARG_OF_PERICENTER":"64.5233","TLE_LINE1":"1 48569U 21041S   21280.94128542  .00000930  00000-0  81315-4 0  9992","DECAY_DATE":null,"MEAN_MOTION_DOT":"0.00000930","REF_FRAME":"TEME","FILE":"3150302","OBJECT_ID":"2021-041S","APOAPSIS":"548.685","MEAN_ANOMALY":"295.5976","ECCENTRICITY":"0.00021290","OBJECT_NAME":"STARLINK-2219"},{"SEMIMAJOR_AXIS":"6925.336","INCLINATION":"53.0545","ELEMENT_SET_NO":"999","PERIAPSIS":"545.905","PERIOD":"95.592","CENTER_NAME":"EARTH","TLE_LINE2":"2 48570  53.0545 186.0662 0001871  61.3367 298.7810 15.06404048 21820","MEAN_MOTION":"15.06404048","COUNTRY_CODE":"US","EPHEMERIS_TYPE":"0","GP_ID":"186513067","BSTAR":"0.00006447100000","RA_OF_ASC_NODE":"186.0662","RCS_SIZE":"LARGE","OBJECT_TYPE":"PAYLOAD","NORAD_CAT_ID":"48570","SITE":"AFETR","APOAPSIS":"548.497","OBJECT_ID":"2021-041T","OBJECT_NAME":"STARLINK-2220","ECCENTRICITY":"0.00018710","MEAN_ANOMALY":"298.7810","EPOCH":"2021-10-07T22:18:11.506176","MEAN_MOTION_DDOT":"0.0000000000000","REV_AT_EPOCH":"2182","TIME_SYSTEM":"UTC","MEAN_ELEMENT_THEORY":"SGP4","LAUNCH_DATE":"2021-05-15","CLASSIFICATION_TYPE":"U","FILE":"3150302","REF_FRAME":"TEME","MEAN_MOTION_DOT":"0.00000679","DECAY_DATE":null,"TLE_LINE1":"1 48570U 21041T   21280.92929984  .00000679  00000-0  64471-4 0  9995","ARG_OF_PERICENTER":"61.3367"},{"OBJECT_ID":"2021-041U","APOAPSIS":"548.527","MEAN_ANOMALY":"290.8286","ECCENTRICITY":"0.00018980","OBJECT_NAME":"STARLINK-2221","LAUNCH_DATE":"2021-05-15","CLASSIFICATION_TYPE":"U","MEAN_ELEMENT_THEORY":"SGP4","TIME_SYSTEM":"UTC","REV_AT_EPOCH":"2183","EPOCH":"2021-10-07T22:28:48.834048","MEAN_MOTION_DDOT":"0.0000000000000","ARG_OF_PERICENTER":"69.2907","TLE_LINE1":"1 48571U 21041U   21280.93667632  .00000327  00000-0  40855-4 0  9996","MEAN_MOTION_DOT":"0.00000327","DECAY_DATE":null,"FILE":"3150302","REF_FRAME":"TEME","PERIOD":"95.592","PERIAPSIS":"545.898","ELEMENT_SET_NO":"999","INCLINATION":"53.0558","SEMIMAJOR_AXIS":"6925.348","MEAN_MOTION":"15.06400298","TLE_LINE2":"2 48571  53.0558 186.0342 0001898  69.2907 290.8286 15.06400298 21830","CENTER_NAME":"EARTH","BSTAR":"0.00004085500000","EPHEMERIS_TYPE":"0","GP_ID":"186513275","COUNTRY_CODE":"US","SITE":"AFETR","OBJECT_TYPE":"PAYLOAD","NORAD_CAT_ID":"48571","RCS_SIZE":"LARGE","RA_OF_ASC_NODE":"186.0342"},{"REF_FRAME":"TEME","FILE":"3150302","MEAN_MOTION_DOT":"0.00000928","DECAY_DATE":null,"ARG_OF_PERICENTER":"67.2003","TLE_LINE1":"1 48572U 21041V   21280.93299487  .00000928  00000-0  81180-4 0  9999","EPOCH":"2021-10-07T22:23:30.756768","MEAN_MOTION_DDOT":"0.0000000000000","TIME_SYSTEM":"UTC","REV_AT_EPOCH":"2183","MEAN_ELEMENT_THEORY":"SGP4","CLASSIFICATION_TYPE":"U","LAUNCH_DATE":"2021-05-15","OBJECT_NAME":"STARLINK-2222","ECCENTRICITY":"0.00017930","MEAN_ANOMALY":"292.9176","APOAPSIS":"548.445","OBJECT_ID":"2021-041V","RCS_SIZE":"LARGE","RA_OF_ASC_NODE":"186.0445","NORAD_CAT_ID":"48572","OBJECT_TYPE":"PAYLOAD","SITE":"AFETR","COUNTRY_CODE":"US","GP_ID":"186513174","EPHEMERIS_TYPE":"0","BSTAR":"0.00008118000000","CENTER_NAME":"EARTH","TLE_LINE2":"2 48572  53.0548 186.0445 0001793  67.2003 292.9176 15.06403377 21835","MEAN_MOTION":"15.06403377","SEMIMAJOR_AXIS":"6925.338","INCLINATION":"53.0548","ELEMENT_SET_NO":"999","PERIOD":"95.592","PERIAPSIS":"545.961"},{"SEMIMAJOR_AXIS":"6925.338","INCLINATION":"53.0515","ELEMENT_SET_NO":"999","PERIOD":"95.592","PERIAPSIS":"545.976","CENTER_NAME":"EARTH","TLE_LINE2":"2 48573  53.0515 176.1531 0001772  64.3959 295.7213 15.06403331 21968","MEAN_MOTION":"15.06403331","COUNTRY_CODE":"US","GP_ID":"186513042","EPHEMERIS_TYPE":"0","BSTAR":"0.00005346600000","RCS_SIZE":"LARGE","RA_OF_ASC_NODE":"176.1531","NORAD_CAT_ID":"48573","OBJECT_TYPE":"PAYLOAD","SITE":"AFETR","APOAPSIS":"548.431","OBJECT_ID":"2021-041W","OBJECT_NAME":"STARLINK-2224","ECCENTRICITY":"0.00017720","MEAN_ANOMALY":"295.7213","EPOCH":"2021-10-07T21:52:58.765728","MEAN_MOTION_DDOT":"0.0000000000000","TIME_SYSTEM":"UTC","REV_AT_EPOCH":"2196","MEAN_ELEMENT_THEORY":"SGP4","CLASSIFICATION_TYPE":"U","LAUNCH_DATE":"2021-05-15","REF_FRAME":"TEME","FILE":"3150302","DECAY_DATE":null,"MEAN_MOTION_DOT":"0.00000515","ARG_OF_PERICENTER":"64.3959","TLE_LINE1":"1 48573U 21041W   21280.91179127  .00000515  00000-0  53466-4 0  9994"}];
